[{"OBJECT_NAME":"ONEWEB-0412","OBJECT_ID":"2021-132W","EPOCH":"2025-08-20T11:33:42.663456","MEAN_MOTION":13.1868591,"ECCENTRICITY":0.0002065,"INCLINATION":87.9144,"RA_OF_ASC_NODE":35.1764,"ARG_OF_PERICENTER":86.3843,"MEAN_ANOMALY":273.7525,"EPHEMERIS_TYPE":0,"CLASSIFICATION_TYPE":"U","NORAD_CAT_ID":50489,"ELEMENT_SET_NO":999,"REV_AT_EPOCH":18202,"BSTAR":0.00014794,"MEAN_MOTION_DOT":7.1e-7,"MEAN_MOTION_DDOT":0},{"OBJECT_NAME":"ONEWEB-0413","OBJECT_ID":"2021-132X","EPOCH":"2025-08-22T11:01:38.708256","MEAN_MOTION":13.18684124,"ECCENTRICITY":0.00019092,"INCLINATION":87.9151,"RA_OF_ASC_NODE":34.7981,"ARG_OF_PERICENTER":81.9719,"MEAN_ANOMALY":278.1629,"EPHEMERIS_TYPE":0,"CLASSIFICATION_TYPE":"U","NORAD_CAT_ID":50490,"ELEMENT_SET_NO":999,"REV_AT_EPOCH":18222,"BSTAR":8.4323113e-5,"MEAN_MOTION_DOT":4.6e-7,"MEAN_MOTION_DDOT":0},{"OBJECT_NAME":"ONEWEB-0414","OBJECT_ID":"2021-132Y","EPOCH":"2025-08-20T22:15:01.658592","MEAN_MOTION":13.18685706,"ECCENTRICITY":0.0002033,"INCLINATION":87.9145,"RA_OF_ASC_NODE":35.0634,"ARG_OF_PERICENTER":92.1516,"MEAN_ANOMALY":267.9849,"EPHEMERIS_TYPE":0,"CLASSIFICATION_TYPE":"U","NORAD_CAT_ID":50491,"ELEMENT_SET_NO":999,"REV_AT_EPOCH":18205,"BSTAR":-9.5845e-5,"MEAN_MOTION_DOT":-2.5e-7,"MEAN_MOTION_DDOT":0},{"OBJECT_NAME":"ONEWEB-0417","OBJECT_ID":"2021-132Z","EPOCH":"2025-08-20T16:59:07.297440","MEAN_MOTION":13.18686636,"ECCENTRICITY":0.0001857,"INCLINATION":87.9147,"RA_OF_ASC_NODE":35.1393,"ARG_OF_PERICENTER":100.3472,"MEAN_ANOMALY":259.7869,"EPHEMERIS_TYPE":0,"CLASSIFICATION_TYPE":"U","NORAD_CAT_ID":50492,"ELEMENT_SET_NO":999,"REV_AT_EPOCH":18200,"BSTAR":0.00017562,"MEAN_MOTION_DOT":8.2e-7,"MEAN_MOTION_DDOT":0},{"OBJECT_NAME":"ONEWEB-0418","OBJECT_ID":"2021-132AA","EPOCH":"2025-08-22T11:06:14.480640","MEAN_MOTION":13.18687121,"ECCENTRICITY":0.00019724,"INCLINATION":87.915,"RA_OF_ASC_NODE":34.7757,"ARG_OF_PERICENTER":108.1996,"MEAN_ANOMALY":251.9351,"EPHEMERIS_TYPE":0,"CLASSIFICATION_TYPE":"U","NORAD_CAT_ID":50493,"ELEMENT_SET_NO":999,"REV_AT_EPOCH":18229,"BSTAR":0.00029746682,"MEAN_MOTION_DOT":1.3e-6,"MEAN_MOTION_DDOT":0},{"OBJECT_NAME":"ONEWEB-0419","OBJECT_ID":"2021-132AB","EPOCH":"2025-08-22T11:32:30.045120","MEAN_MOTION":13.18684407,"ECCENTRICITY":0.0001632,"INCLINATION":87.9146,"RA_OF_ASC_NODE":34.7738,"ARG_OF_PERICENTER":104.0714,"MEAN_ANOMALY":256.0599,"EPHEMERIS_TYPE":0,"CLASSIFICATION_TYPE":"U","NORAD_CAT_ID":50494,"ELEMENT_SET_NO":999,"REV_AT_EPOCH":18221,"BSTAR":-0.00087748848,"MEAN_MOTION_DOT":-3.33e-6,"MEAN_MOTION_DDOT":0},{"OBJECT_NAME":"ONEWEB-0420","OBJECT_ID":"2021-132AC","EPOCH":"2025-08-20T16:49:36.642720","MEAN_MOTION":13.18686497,"ECCENTRICITY":0.0001731,"INCLINATION":87.9145,"RA_OF_ASC_NODE":35.1382,"ARG_OF_PERICENTER":81.917,"MEAN_ANOMALY":278.2158,"EPHEMERIS_TYPE":0,"CLASSIFICATION_TYPE":"U","NORAD_CAT_ID":50495,"ELEMENT_SET_NO":999,"REV_AT_EPOCH":18197,"BSTAR":0.00015183,"MEAN_MOTION_DOT":7.3e-7,"MEAN_MOTION_DDOT":0},{"OBJECT_NAME":"ONEWEB-0421","OBJECT_ID":"2021-132AD","EPOCH":"2025-08-20T22:07:54.333696","MEAN_MOTION":13.18685929,"ECCENTRICITY":0.0002112,"INCLINATION":87.9144,"RA_OF_ASC_NODE":35.0875,"ARG_OF_PERICENTER":91.0713,"MEAN_ANOMALY":269.0661,"EPHEMERIS_TYPE":0,"CLASSIFICATION_TYPE":"U","NORAD_CAT_ID":50496,"ELEMENT_SET_NO":999,"REV_AT_EPOCH":18204,"BSTAR":-0.00012527,"MEAN_MOTION_DOT":-3.6e-7,"MEAN_MOTION_DDOT":0},{"OBJECT_NAME":"ONEWEB-0424","OBJECT_ID":"2021-132AE","EPOCH":"2025-08-22T11:25:22.151712","MEAN_MOTION":13.18686684,"ECCENTRICITY":0.00014714,"INCLINATION":87.915,"RA_OF_ASC_NODE":34.7725,"ARG_OF_PERICENTER":103.7425,"MEAN_ANOMALY":256.3871,"EPHEMERIS_TYPE":0,"CLASSIFICATION_TYPE":"U","NORAD_CAT_ID":50497,"ELEMENT_SET_NO":999,"REV_AT_EPOCH":18227,"BSTAR":-0.00017615484,"MEAN_MOTION_DOT":-5.7e-7,"MEAN_MOTION_DDOT":0},{"OBJECT_NAME":"ONEWEB-0426","OBJECT_ID":"2021-132AF","EPOCH":"2025-08-20T22:03:08.945856","MEAN_MOTION":13.1868604,"ECCENTRICITY":0.0002484,"INCLINATION":87.9143,"RA_OF_ASC_NODE":35.0755,"ARG_OF_PERICENTER":99.8374,"MEAN_ANOMALY":260.3039,"EPHEMERIS_TYPE":0,"CLASSIFICATION_TYPE":"U","NORAD_CAT_ID":50498,"ELEMENT_SET_NO":999,"REV_AT_EPOCH":18201,"BSTAR":4.5243e-5,"MEAN_MOTION_DOT":3.1e-7,"MEAN_MOTION_DDOT":0},{"OBJECT_NAME":"ONEWEB-0427","OBJECT_ID":"2021-132AG","EPOCH":"2025-08-22T11:22:59.714400","MEAN_MOTION":13.18686042,"ECCENTRICITY":0.00018607,"INCLINATION":87.9145,"RA_OF_ASC_NODE":34.7551,"ARG_OF_PERICENTER":100.3057,"MEAN_ANOMALY":259.8285,"EPHEMERIS_TYPE":0,"CLASSIFICATION_TYPE":"U","NORAD_CAT_ID":50499,"ELEMENT_SET_NO":999,"REV_AT_EPOCH":18224,"BSTAR":-0.0002841863,"MEAN_MOTION_DOT":-9.9e-7,"MEAN_MOTION_DDOT":0},{"OBJECT_NAME":"ONEWEB-0429","OBJECT_ID":"2021-132AH","EPOCH":"2025-08-22T11:04:03.552672","MEAN_MOTION":13.18687775,"ECCENTRICITY":0.00017072,"INCLINATION":87.9151,"RA_OF_ASC_NODE":34.7872,"ARG_OF_PERICENTER":88.5371,"MEAN_ANOMALY":271.5956,"EPHEMERIS_TYPE":0,"CLASSIFICATION_TYPE":"U","NORAD_CAT_ID":50500,"ELEMENT_SET_NO":999,"REV_AT_EPOCH":18221,"BSTAR":0.00018852358,"MEAN_MOTION_DOT":8.7e-7,"MEAN_MOTION_DDOT":0},{"OBJECT_NAME":"ONEWEB-0430","OBJECT_ID":"2021-132AJ","EPOCH":"2025-08-20T16:54:21.837888","MEAN_MOTION":13.18686888,"ECCENTRICITY":0.0001658,"INCLINATION":87.915,"RA_OF_ASC_NODE":35.1316,"ARG_OF_PERICENTER":92.1701,"MEAN_ANOMALY":267.9621,"EPHEMERIS_TYPE":0,"CLASSIFICATION_TYPE":"U","NORAD_CAT_ID":50501,"ELEMENT_SET_NO":999,"REV_AT_EPOCH":18202,"BSTAR":0.00026647,"MEAN_MOTION_DOT":1.18e-6,"MEAN_MOTION_DDOT":0},{"OBJECT_NAME":"ONEWEB-0432","OBJECT_ID":"2021-132AK","EPOCH":"2025-08-22T11:32:48.303168","MEAN_MOTION":13.18689105,"ECCENTRICITY":0.0001783,"INCLINATION":87.9141,"RA_OF_ASC_NODE":34.7572,"ARG_OF_PERICENTER":123.6626,"MEAN_ANOMALY":236.4676,"EPHEMERIS_TYPE":0,"CLASSIFICATION_TYPE":"U","NORAD_CAT_ID":50502,"ELEMENT_SET_NO":999,"REV_AT_EPOCH":18221,"BSTAR":0.00017234643,"MEAN_MOTION_DOT":8.1e-7,"MEAN_MOTION_DDOT":0},{"OBJECT_NAME":"ONEWEB-0440","OBJECT_ID":"2021-132AL","EPOCH":"2025-08-22T11:15:53.406432","MEAN_MOTION":13.18687885,"ECCENTRICITY":0.00020543,"INCLINATION":87.9152,"RA_OF_ASC_NODE":34.7689,"ARG_OF_PERICENTER":83.4905,"MEAN_ANOMALY":276.6461,"EPHEMERIS_TYPE":0,"CLASSIFICATION_TYPE":"U","NORAD_CAT_ID":50503,"ELEMENT_SET_NO":999,"REV_AT_EPOCH":18220,"BSTAR":0.00014144147,"MEAN_MOTION_DOT":6.9e-7,"MEAN_MOTION_DDOT":0},{"OBJECT_NAME":"ONEWEB-0450","OBJECT_ID":"2021-132AM","EPOCH":"2025-08-22T11:06:36.902304","MEAN_MOTION":13.18686219,"ECCENTRICITY":0.00015798,"INCLINATION":87.915,"RA_OF_ASC_NODE":34.7958,"ARG_OF_PERICENTER":85.328,"MEAN_ANOMALY":274.8032,"EPHEMERIS_TYPE":0,"CLASSIFICATION_TYPE":"U","NORAD_CAT_ID":50504,"ELEMENT_SET_NO":999,"REV_AT_EPOCH":18223,"BSTAR":0.00011169471,"MEAN_MOTION_DOT":5.7e-7,"MEAN_MOTION_DDOT":0},{"OBJECT_NAME":"ONEWEB-0410","OBJECT_ID":"2022-012A","EPOCH":"2025-08-22T11:37:31.397952","MEAN_MOTION":13.1764999,"ECCENTRICITY":0.00028767,"INCLINATION":87.9032,"RA_OF_ASC_NODE":65.2742,"ARG_OF_PERICENTER":113.6271,"MEAN_ANOMALY":246.5162,"EPHEMERIS_TYPE":0,"CLASSIFICATION_TYPE":"U","NORAD_CAT_ID":51622,"ELEMENT_SET_NO":999,"REV_AT_EPOCH":17436,"BSTAR":3.2445856e-5,"MEAN_MOTION_DOT":2.6e-7,"MEAN_MOTION_DDOT":0}]
