ONEWEB-0412             
1 50489U 21132W   25232.48174379  .00000071  00000+0  14794-3 0  9997
2 50489  87.9144  35.1764 0002065  86.3843 273.7525 13.18685910182028
ONEWEB-0413             
1 50490U 21132X   25234.45947579  .00000046  00000+0  84323-4 0  9996
2 50490  87.9151  34.7981 0001909  81.9719 278.1629 13.18684124182225
ONEWEB-0414             
1 50491U 21132Y   25232.92710253 -.00000025  00000+0 -95845-4 0  9994
2 50491  87.9145  35.0634 0002033  92.1516 267.9849 13.18685706182054
ONEWEB-0417             
1 50492U 21132Z   25232.70772335  .00000082  00000+0  17562-3 0  9990
2 50492  87.9147  35.1393 0001857 100.3472 259.7869 13.18686636182005
ONEWEB-0418             
1 50493U 21132AA  25234.46266760  .00000130  00000+0  29747-3 0  9998
2 50493  87.9150  34.7757 0001972 108.1996 251.9351 13.18687121182295
ONEWEB-0419             
1 50494U 21132AB  25234.48090330 -.00000333  00000+0 -87749-3 0  9992
2 50494  87.9146  34.7738 0001632 104.0714 256.0599 13.18684407182212
ONEWEB-0420             
1 50495U 21132AC  25232.70111855  .00000073  00000+0  15183-3 0  9994
2 50495  87.9145  35.1382 0001731  81.9170 278.2158 13.18686497181971
ONEWEB-0421             
1 50496U 21132AD  25232.92215664 -.00000036  00000+0 -12527-3 0  9992
2 50496  87.9144  35.0875 0002112  91.0713 269.0661 13.18685929182041
ONEWEB-0424             
1 50497U 21132AE  25234.47595083 -.00000057  00000+0 -17615-3 0  9997
2 50497  87.9150  34.7725 0001471 103.7425 256.3871 13.18686684182273
ONEWEB-0426             
1 50498U 21132AF  25232.91885354  .00000031  00000+0  45243-4 0  9997
2 50498  87.9143  35.0755 0002484  99.8374 260.3039 13.18686040182015
ONEWEB-0427             
1 50499U 21132AG  25234.47430225 -.00000099  00000+0 -28419-3 0  9995
2 50499  87.9145  34.7551 0001860 100.3057 259.8285 13.18686042182244
ONEWEB-0429             
1 50500U 21132AH  25234.46115223  .00000087  00000+0  18852-3 0  9990
2 50500  87.9151  34.7872 0001707  88.5371 271.5956 13.18687775182213
ONEWEB-0430             
1 50501U 21132AJ  25232.70441942  .00000118  00000+0  26647-3 0  9992
2 50501  87.9150  35.1316 0001658  92.1701 267.9621 13.18686888182025
ONEWEB-0432             
1 50502U 21132AK  25234.48111462  .00000081  00000+0  17235-3 0  9993
2 50502  87.9141  34.7572 0001783 123.6626 236.4676 13.18689105182217
ONEWEB-0440             
1 50503U 21132AL  25234.46936813  .00000069  00000+0  14144-3 0  9999
2 50503  87.9152  34.7689 0002054  83.4905 276.6461 13.18687885182204
ONEWEB-0450             
1 50504U 21132AM  25234.46292711  .00000057  00000+0  11169-3 0  9993
2 50504  87.9150  34.7958 0001579  85.3280 274.8032 13.18686219182237
ONEWEB-0410             
1 51622U 22012A   25234.48439118  .00000026  00000+0  32446-4 0  9997
2 51622  87.9032  65.2742 0002876 113.6271 246.5162 13.17649990174363
